{"type": "FeatureCollection", "features": [ {"type": "Feature", "properties": {"norad_id": 39634, "name": "SENTINEL-1A", "group": "resource", "lat": -79.50507989704931, "lon": 50.92141011037127, "alt_km": 703.9728466412889, "timestamp": "2025-12-20T20:38:44.101124+00:00", "meta": {"OBJECT_NAME": "SENTINEL-1A", "OBJECT_ID": "2014-016A", "EPOCH": "2025-12-20T16:05:25.017216", "MEAN_MOTION": 14.59201398, "ECCENTRICITY": 0.0001258, "INCLINATION": 98.18, "RA_OF_ASC_NODE": 359.795, "ARG_OF_PERICENTER": 88.4646, "MEAN_ANOMALY": 271.6698, "EPHEMERIS_TYPE": 0, "CLASSIFICATION_TYPE": "U", "NORAD_CAT_ID": 39634, "ELEMENT_SET_NO": 999, "REV_AT_EPOCH": 62398, "BSTAR": 1.8848e-05, "MEAN_MOTION_DOT": 4.3e-07, "MEAN_MOTION_DDOT": 0}, "tle": {"line1": "1 39634U 14016A   25354.67042844  .00000043  00000+0  18848-4 0  9990", "line2": "2 39634  98.1800 359.7950 0001258  88.4646 271.6698 14.59201398623982"}}, "geometry": {"type": "Point", "coordinates": [50.92141011037127, -79.50507989704931]}}, {"type": "Feature", "properties": {"norad_id": 39731, "name": "KAZEOSAT 1", "group": "resource", "lat": 67.44886401370454, "lon": -92.71919025740642, "alt_km": 744.2789819554373, "timestamp": "2025-12-20T20:38:44.101134+00:00", "meta": {"OBJECT_NAME": "KAZEOSAT 1", "OBJECT_ID": "2014-024A", "EPOCH": "2025-12-20T15:08:13.534080", "MEAN_MOTION": 14.42067237, "ECCENTRICITY": 0.00011831, "INCLINATION": 98.3432, "RA_OF_ASC_NODE": 66.3615, "ARG_OF_PERICENTER": 96.3678, "MEAN_ANOMALY": 263.7646, "EPHEMERIS_TYPE": 0, "CLASSIFICATION_TYPE": "U", "NORAD_CAT_ID": 39731, "ELEMENT_SET_NO": 999, "REV_AT_EPOCH": 61282, "BSTAR": 0.00011015102, "MEAN_MOTION_DOT": 3.19e-06, "MEAN_MOTION_DDOT": 0}, "tle": {"line1": "1 39731U 14024A   25354.63071220  .00000319  00000+0  11015-3 0  9997", "line2": "2 39731  98.3432  66.3615 0001183  96.3678 263.7646 14.42067237612822"}}, "geometry": {"type": "Point", "coordinates": [-92.71919025740642, 67.44886401370454]}}, {"type": "Feature", "properties": {"norad_id": 39766, "name": "ALOS-2", "group": "resource", "lat": 6.538281792085842, "lon": 88.67668950627642, "alt_km": 633.0958154181253, "timestamp": "2025-12-20T20:38:44.101144+00:00", "meta": {"OBJECT_NAME": "ALOS-2", "OBJECT_ID": "2014-029A", "EPOCH": "2025-12-20T14:07:23.098656", "MEAN_MOTION": 14.79472796, "ECCENTRICITY": 0.00014309, "INCLINATION": 97.9232, "RA_OF_ASC_NODE": 89.3234, "ARG_OF_PERICENTER": 96.6624, "MEAN_ANOMALY": 263.4751, "EPHEMERIS_TYPE": 0, "CLASSIFICATION_TYPE": "U", "NORAD_CAT_ID": 39766, "ELEMENT_SET_NO": 999, "REV_AT_EPOCH": 62517, "BSTAR": 0.00030651184, "MEAN_MOTION_DOT": 2.238e-05, "MEAN_MOTION_DDOT": 0}, "tle": {"line1": "1 39766U 14029A   25354.58846179  .00002238  00000+0  30651-3 0  9996", "line2": "2 39766  97.9232  89.3234 0001430  96.6624 263.4751 14.79472796625170"}}, "geometry": {"type": "Point", "coordinates": [88.67668950627642, 6.538281792085842]}}, {"type": "Feature", "properties": {"norad_id": 40010, "name": "KAZEOSAT 2", "group": "resource", "lat": 79.77716452581657, "lon": 151.41248228964517, "alt_km": 606.2037835049669, "timestamp": "2025-12-20T20:38:44.101154+00:00", "meta": {"OBJECT_NAME": "KAZEOSAT 2", "OBJECT_ID": "2014-033A", "EPOCH": "2025-12-20T13:48:16.440192", "MEAN_MOTION": 14.85177977, "ECCENTRICITY": 0.00083392, "INCLINATION": 97.5497, "RA_OF_ASC_NODE": 198.4846, "ARG_OF_PERICENTER": 179.4742, "MEAN_ANOMALY": 180.6484, "EPHEMERIS_TYPE": 0, "CLASSIFICATION_TYPE": "U", "NORAD_CAT_ID": 40010, "ELEMENT_SET_NO": 999, "REV_AT_EPOCH": 62244, "BSTAR": 1.9000057e-05, "MEAN_MOTION_DOT": 1.13e-06, "MEAN_MOTION_DDOT": 0}, "tle": {"line1": "1 40010U 14033A   25354.57519028  .00000113  00000+0  19000-4 0  9990", "line2": "2 40010  97.5497 198.4846 0008339 179.4742 180.6484 14.85177977622440"}}, "geometry": {"type": "Point", "coordinates": [151.41248228964517, 79.77716452581657]}}, {"type": "Feature", "properties": {"norad_id": 40011, "name": "HODOYOSHI-4", "group": "resource", "lat": -58.23269657254131, "lon": -9.008605721361155, "alt_km": 605.9508657585175, "timestamp": "2025-12-20T20:38:44.101164+00:00", "meta": {"OBJECT_NAME": "HODOYOSHI-4", "OBJECT_ID": "2014-033B", "EPOCH": "2025-12-20T14:43:56.406720", "MEAN_MOTION": 14.87507407, "ECCENTRICITY": 0.00238064, "INCLINATION": 97.5405, "RA_OF_ASC_NODE": 183.1089, "ARG_OF_PERICENTER": 174.2019, "MEAN_ANOMALY": 185.9478, "EPHEMERIS_TYPE": 0, "CLASSIFICATION_TYPE": "U", "NORAD_CAT_ID": 40011, "ELEMENT_SET_NO": 999, "REV_AT_EPOCH": 62225, "BSTAR": 0.00016575958, "MEAN_MOTION_DOT": 1.458e-05, "MEAN_MOTION_DDOT": 0}, "tle": {"line1": "1 40011U 14033B   25354.61384730  .00001458  00000+0  16576-3 0  9993", "line2": "2 40011  97.5405 183.1089 0023806 174.2019 185.9478 14.87507407622253"}}, "geometry": {"type": "Point", "coordinates": [-9.008605721361155, -58.23269657254131]}}, {"type": "Feature", "properties": {"norad_id": 40013, "name": "DEIMOS-2", "group": "resource", "lat": -16.37372146460014, "lon": 48.14174368686766, "alt_km": 593.5069476668104, "timestamp": "2025-12-20T20:38:44.101174+00:00", "meta": {"OBJECT_NAME": "DEIMOS-2", "OBJECT_ID": "2014-033D", "EPOCH": "2025-12-20T14:56:35.765088", "MEAN_MOTION": 14.93007577, "ECCENTRICITY": 0.00014765, "INCLINATION": 97.6069, "RA_OF_ASC_NODE": 230.1624, "ARG_OF_PERICENTER": 104.9603, "MEAN_ANOMALY": 255.178, "EPHEMERIS_TYPE": 0, "CLASSIFICATION_TYPE": "U", "NORAD_CAT_ID": 40013, "ELEMENT_SET_NO": 999, "REV_AT_EPOCH": 61107, "BSTAR": 0.00021695705, "MEAN_MOTION_DOT": 2.201e-05, "MEAN_MOTION_DDOT": 0}, "tle": {"line1": "1 40013U 14033D   25354.62263617  .00002201  00000+0  21696-3 0  9992", "line2": "2 40013  97.6069 230.1624 0001476 104.9603 255.1780 14.93007577611072"}}, "geometry": {"type": "Point", "coordinates": [48.14174368686766, -16.37372146460014]}}, {"type": "Feature", "properties": {"norad_id": 40015, "name": "HODOYOSHI-3", "group": "resource", "lat": 81.29731492659886, "lon": 99.33925064377591, "alt_km": 622.4532311743242, "timestamp": "2025-12-20T20:38:44.101184+00:00", "meta": {"OBJECT_NAME": "HODOYOSHI-3", "OBJECT_ID": "2014-033F", "EPOCH": "2025-12-20T10:33:15.533568", "MEAN_MOTION": 14.84830501, "ECCENTRICITY": 0.0032237, "INCLINATION": 97.6204, "RA_OF_ASC_NODE": 159.9401, "ARG_OF_PERICENTER": 221.7025, "MEAN_ANOMALY": 138.1732, "EPHEMERIS_TYPE": 0, "CLASSIFICATION_TYPE": "U", "NORAD_CAT_ID": 40015, "ELEMENT_SET_NO": 999, "REV_AT_EPOCH": 62109, "BSTAR": 0.00014195012, "MEAN_MOTION_DOT": 1.164e-05, "MEAN_MOTION_DDOT": 0}, "tle": {"line1": "1 40015U 14033F   25354.43976312  .00001164  00000+0  14195-3 0  9999", "line2": "2 40015  97.6204 159.9401 0032237 221.7025 138.1732 14.84830501621092"}}, "geometry": {"type": "Point", "coordinates": [99.33925064377591, 81.29731492659886]}}, {"type": "Feature", "properties": {"norad_id": 40053, "name": "SPOT 7", "group": "resource", "lat": -6.2036157856476, "lon": -124.13679457586386, "alt_km": 694.7587713933963, "timestamp": "2025-12-20T20:38:44.101194+00:00", "meta": {"OBJECT_NAME": "SPOT 7", "OBJECT_ID": "2014-034A", "EPOCH": "2025-12-20T14:51:51.522048", "MEAN_MOTION": 14.60743894, "ECCENTRICITY": 0.00015894, "INCLINATION": 98.0902, "RA_OF_ASC_NODE": 56.5138, "ARG_OF_PERICENTER": 85.3359, "MEAN_ANOMALY": 274.8023, "EPHEMERIS_TYPE": 0, "CLASSIFICATION_TYPE": "U", "NORAD_CAT_ID": 40053, "ELEMENT_SET_NO": 999, "REV_AT_EPOCH": 61106, "BSTAR": 0.00013221539, "MEAN_MOTION_DOT": 5.99e-06, "MEAN_MOTION_DDOT": 0}, "tle": {"line1": "1 40053U 14034A   25354.61934632  .00000599  00000+0  13222-3 0  9992", "line2": "2 40053  98.0902  56.5138 0001589  85.3359 274.8023 14.60743894611062"}}, "geometry": {"type": "Point", "coordinates": [-124.13679457586386, -6.2036157856476]}}, {"type": "Feature", "properties": {"norad_id": 40072, "name": "SKYSAT-B", "group": "resource", "lat": 1.8811676149097172, "lon": 119.2722607389117, "alt_km": 606.050493323135, "timestamp": "2025-12-20T20:38:44.101205+00:00", "meta": {"OBJECT_NAME": "SKYSAT-B", "OBJECT_ID": "2014-037D", "EPOCH": "2025-12-20T10:09:39.392640", "MEAN_MOTION": 14.87352271, "ECCENTRICITY": 0.00066211, "INCLINATION": 98.3622, "RA_OF_ASC_NODE": 298.5355, "ARG_OF_PERICENTER": 128.6134, "MEAN_ANOMALY": 231.5674, "EPHEMERIS_TYPE": 0, "CLASSIFICATION_TYPE": "U", "NORAD_CAT_ID": 40072, "ELEMENT_SET_NO": 999, "REV_AT_EPOCH": 61938, "BSTAR": 0.00013980446, "MEAN_MOTION_DOT": 1.202e-05, "MEAN_MOTION_DDOT": 0}, "tle": {"line1": "1 40072U 14037D   25354.42337260  .00001202  00000+0  13980-3 0  9992", "line2": "2 40072  98.3622 298.5355 0006621 128.6134 231.5674 14.87352271619387"}}, "geometry": {"type": "Point", "coordinates": [119.2722607389117, 1.8811676149097172]}}, {"type": "Feature", "properties": {"norad_id": 40115, "name": "WORLDVIEW-3 (WV-3)", "group": "resource", "lat": 5.794699581468573, "lon": 66.23517118443935, "alt_km": 617.6739614639582, "timestamp": "2025-12-20T20:38:44.101214+00:00", "meta": {"OBJECT_NAME": "WORLDVIEW-3 (WV-3)", "OBJECT_ID": "2014-048A", "EPOCH": "2025-12-20T10:54:51.112800", "MEAN_MOTION": 14.84663942, "ECCENTRICITY": 0.00017961, "INCLINATION": 97.8771, "RA_OF_ASC_NODE": 66.6396, "ARG_OF_PERICENTER": 136.5059, "MEAN_ANOMALY": 223.6297, "EPHEMERIS_TYPE": 0, "CLASSIFICATION_TYPE": "U", "NORAD_CAT_ID": 40115, "ELEMENT_SET_NO": 999, "REV_AT_EPOCH": 61538, "BSTAR": 9.7642833e-05, "MEAN_MOTION_DOT": 7.73e-06, "MEAN_MOTION_DDOT": 0}, "tle": {"line1": "1 40115U 14048A   25354.45475825  .00000773  00000+0  97643-4 0  9996", "line2": "2 40115  97.8771  66.6396 0001796 136.5059 223.6297 14.84663942615381"}}, "geometry": {"type": "Point", "coordinates": [66.23517118443935, 5.794699581468573]}}]}